IRIDIUM 39              
1 25042U 97069D   25334.51963574  .00000854  00000+0  21722-3 0  9994
2 25042  86.3908 139.8727 0019724 108.8389 251.4957 14.49473620473058
IRIDIUM 38              
1 25043U 97069E   25334.52467830  .00000496  00000+0  15670-3 0  9997
2 25043  86.3971 163.2441 0000170  38.3031 321.8179 14.38294825469867
IRIDIUM 42              
1 25077U 97077A   25334.59638489  .00000454  00000+0  14811-3 0  9990
2 25077  86.3981 169.5851 0001342  74.9957 285.1389 14.36514996465081
IRIDIUM 44              
1 25078U 97077B   25334.51823024  .00000474  00000+0  14299-3 0  9996
2 25078  86.3963 151.1136 0002233 140.9134 219.2227 14.40415142467647
IRIDIUM 45              
1 25104U 97082A   25334.45085771  .00028603  00000+0  82512-3 0  9991
2 25104  86.3541 326.7313 0103478  66.3667 294.8403 15.30274645477390
IRIDIUM 24              
1 25105U 97082B   25334.62246840  .00000512  00000+0  14911-3 0  9994
2 25105  86.3921   9.6941 0009387 242.4596 117.5651 14.42309426467202
IRIDIUM 51              
1 25262U 98018A   25334.46150899  .00098686  00000+0  11718-2 0  9998
2 25262  86.3742 332.5365 0053262 327.4877  32.3109 15.59085370472736
IRIDIUM 57              
1 25273U 98019B   25334.22975297  .00000443  00000+0  14579-3 0  9995
2 25273  86.3959  75.6363 0001988  95.9157 264.2266 14.36035886448618
